[
  {
    "First name": "John",
    "Last name": "Doe",
    "Birth date": "01/01/1990",
    "Street": "123 Main St",
    "City": "Boston",
    "State": "MA",
    "ZIP": "02108",
    "Department": "Sales",
    "Start date": "03/15/2023"
  },
  {
    "First name": "Jane",
    "Last name": "Smith",
    "Birth date": "06/15/1995",
    "Street": "456 Elm St",
    "City": "Chicago",
    "State": "IL",
    "ZIP": "60601",
    "Department": "Marketing",
    "Start date": "04/01/2023"
  },
  {
    "First name": "Alice",
    "Last name": "Johnson",
    "Birth date": "11/22/1988",
    "Street": "789 Pine St",
    "City": "Seattle",
    "State": "WA",
    "ZIP": "98101",
    "Department": "Engineering",
    "Start date": "05/10/2023"
  },
  {
    "First name": "Bob",
    "Last name": "Brown",
    "Birth date": "03/07/1992",
    "Street": "321 Oak St",
    "City": "Denver",
    "State": "CO",
    "ZIP": "80201",
    "Department": "Human Resources",
    "Start date": "06/01/2023"
  },
  {
    "First name": "Charlie",
    "Last name": "Davis",
    "Birth date": "08/29/1997",
    "Street": "654 Maple St",
    "City": "Atlanta",
    "State": "GA",
    "ZIP": "30301",
    "Department": "Legal",
    "Start date": "07/15/2023"
  },
  {
    "First name": "Eve",
    "Last name": "Miller",
    "Birth date": "12/05/1985",
    "Street": "987 Birch St",
    "City": "Miami",
    "State": "FL",
    "ZIP": "33101",
    "Department": "Sales",
    "Start date": "08/01/2023"
  },
  {
    "First name": "Frank",
    "Last name": "Thomas",
    "Birth date": "05/18/1993",
    "Street": "135 Cedar St",
    "City": "Dallas",
    "State": "TX",
    "ZIP": "75201",
    "Department": "Marketing",
    "Start date": "09/10/2023"
  },
  {
    "First name": "Grace",
    "Last name": "Wilson",
    "Birth date": "10/27/1989",
    "Street": "246 Cherry St",
    "City": "Philadelphia",
    "State": "PA",
    "ZIP": "19101",
    "Department": "Engineering",
    "Start date": "10/01/2023"
  },
  {
    "First name": "Heidi",
    "Last name": "Taylor",
    "Birth date": "02/14/1996",
    "Street": "864 Elm St",
    "City": "Phoenix",
    "State": "AZ",
    "ZIP": "85001",
    "Department": "Human Resources",
    "Start date": "11/15/2023"
  },
  {
    "First name": "Ivan",
    "Last name": "White",
    "Birth date": "07/04/1991",
    "Street": "579 Pine St",
    "City": "San Francisco",
    "State": "CA",
    "ZIP": "94101",
    "Department": "Legal",
    "Start date": "12/01/2023"
  },
  {
    "First name": "Olivia",
    "Last name": "Clark",
    "Birth date": "09/12/1994",
    "Street": "111 Oak St",
    "City": "New York",
    "State": "NY",
    "ZIP": "10001",
    "Department": "Sales",
    "Start date": "01/01/2024"
  },
  {
    "First name": "Liam",
    "Last name": "Lee",
    "Birth date": "04/20/1998",
    "Street": "222 Maple Ave",
    "City": "Los Angeles",
    "State": "CA",
    "ZIP": "90001",
    "Department": "Marketing",
    "Start date": "02/14/2024"
  },
  {
    "First name": "Ava",
    "Last name": "Garcia",
    "Birth date": "01/06/1992",
    "Street": "333 Birch Ln",
    "City": "Chicago",
    "State": "IL",
    "ZIP": "60601",
    "Department": "Engineering",
    "Start date": "03/07/2024"
  },
  {
    "First name": "Noah",
    "Last name": "Martinez",
    "Birth date": "11/18/1996",
    "Street": "444 Pine Dr",
    "City": "Houston",
    "State": "TX",
    "ZIP": "77001",
    "Department": "Human Resources",
    "Start date": "04/15/2024"
  },
  {
    "First name": "Sophia",
    "Last name": "Rodriguez",
    "Birth date": "06/24/1999",
    "Street": "555 Elm St",
    "City": "Philadelphia",
    "State": "PA",
    "ZIP": "19101",
    "Department": "Legal",
    "Start date": "05/22/2024"
  },
  {
    "First name": "Mason",
    "Last name": "Hernandez",
    "Birth date": "03/09/1987",
    "Street": "666 Cedar Rd",
    "City": "Phoenix",
    "State": "AZ",
    "ZIP": "85001",
    "Department": "Sales",
    "Start date": "06/08/2024"
  },
  {
    "First name": "Isabella",
    "Last name": "Wright",
    "Birth date": "08/15/1993",
    "Street": "777 Walnut Ln",
    "City": "San Antonio",
    "State": "TX",
    "ZIP": "78201",
    "Department": "Marketing",
    "Start date": "07/17/2024"
  },
  {
    "First name": "Elijah",
    "Last name": "King",
    "Birth date": "10/30/1997",
    "Street": "888 Hickory Dr",
    "City": "San Diego",
    "State": "CA",
    "ZIP": "92101",
    "Department": "Engineering",
    "Start date": "08/24/2024"
  },
  {
    "First name": "Mia",
    "Last name": "Scott",
    "Birth date": "12/07/1989",
    "Street": "999 Cherry St",
    "City": "Dallas",
    "State": "TX",
    "ZIP": "75201",
    "Department": "Human Resources",
    "Start date": "09/30/2024"
  }
]
