[
  {
    "First name": "John",
    "Last name": "Doe",
    "Birth date": "01/01/1990",
    "Street": "123 Main St",
    "City": "Boston",
    "State": "MA",
    "ZIP": "02108",
    "Department": "Sales",
    "Start date": "03/15/2023"
  },
  {
    "First name": "Jane",
    "Last name": "Smith",
    "Birth date": "06/15/1995",
    "Street": "456 Elm St",
    "City": "Chicago",
    "State": "IL",
    "ZIP": "60601",
    "Department": "Marketing",
    "Start date": "04/01/2023"
  },
  {
    "First name": "Alice",
    "Last name": "Johnson",
    "Birth date": "11/22/1988",
    "Street": "789 Pine St",
    "City": "Seattle",
    "State": "WA",
    "ZIP": "98101",
    "Department": "Engineering",
    "Start date": "05/10/2023"
  },
  {
    "First name": "Bob",
    "Last name": "Brown",
    "Birth date": "03/07/1992",
    "Street": "321 Oak St",
    "City": "Denver",
    "State": "CO",
    "ZIP": "80201",
    "Department": "Human Resources",
    "Start date": "06/01/2023"
  },
  {
    "First name": "Charlie",
    "Last name": "Davis",
    "Birth date": "08/29/1997",
    "Street": "654 Maple St",
    "City": "Atlanta",
    "State": "GA",
    "ZIP": "30301",
    "Department": "Legal",
    "Start date": "07/15/2023"
  },
  {
    "First name": "Eve",
    "Last name": "Miller",
    "Birth date": "12/05/1985",
    "Street": "987 Birch St",
    "City": "Miami",
    "State": "FL",
    "ZIP": "33101",
    "Department": "Sales",
    "Start date": "08/01/2023"
  },
  {
    "First name": "Frank",
    "Last name": "Thomas",
    "Birth date": "05/18/1993",
    "Street": "135 Cedar St",
    "City": "Dallas",
    "State": "TX",
    "ZIP": "75201",
    "Department": "Marketing",
    "Start date": "09/10/2023"
  },
  {
    "First name": "Grace",
    "Last name": "Wilson",
    "Birth date": "10/27/1989",
    "Street": "246 Cherry St",
    "City": "Philadelphia",
    "State": "PA",
    "ZIP": "19101",
    "Department": "Engineering",
    "Start date": "10/01/2023"
  },
  {
    "First name": "Heidi",
    "Last name": "Taylor",
    "Birth date": "02/14/1996",
    "Street": "864 Elm St",
    "City": "Phoenix",
    "State": "AZ",
    "ZIP": "85001",
    "Department": "Human Resources",
    "Start date": "11/15/2023"
  },
  {
    "First name": "Ivan",
    "Last name": "White",
    "Birth date": "07/04/1991",
    "Street": "579 Pine St",
    "City": "San Francisco",
    "State": "CA",
    "ZIP": "94101",
    "Department": "Legal",
    "Start date": "12/01/2023"
  },
  {
    "First name": "Olivia",
    "Last name": "Clark",
    "Birth date": "09/12/1994",
    "Street": "111 Oak St",
    "City": "New York",
    "State": "NY",
    "ZIP": "10001",
    "Department": "Sales",
    "Start date": "01/01/2024"
  },
  {
    "First name": "Liam",
    "Last name": "Lee",
    "Birth date": "04/20/1998",
    "Street": "222 Maple Ave",
    "City": "Los Angeles",
    "State": "CA",
    "ZIP": "90001",
    "Department": "Marketing",
    "Start date": "02/14/2024"
  },
  {
    "First name": "Ava",
    "Last name": "Garcia",
    "Birth date": "01/06/1992",
    "Street": "333 Birch Ln",
    "City": "Chicago",
    "State": "IL",
    "ZIP": "60601",
    "Department": "Engineering",
    "Start date": "03/07/2024"
  },
  {
    "First name": "Noah",
    "Last name": "Martinez",
    "Birth date": "11/18/1996",
    "Street": "444 Pine Dr",
    "City": "Houston",
    "State": "TX",
    "ZIP": "77001",
    "Department": "Human Resources",
    "Start date": "04/15/2024"
  },
  {
    "First name": "Sophia",
    "Last name": "Rodriguez",
    "Birth date": "06/24/1999",
    "Street": "555 Elm St",
    "City": "Philadelphia",
    "State": "PA",
    "ZIP": "19101",
    "Department": "Legal",
    "Start date": "05/22/2024"
  },
  {
    "First name": "Mason",
    "Last name": "Hernandez",
    "Birth date": "03/09/1987",
    "Street": "666 Cedar Rd",
    "City": "Phoenix",
    "State": "AZ",
    "ZIP": "85001",
    "Department": "Sales",
    "Start date": "06/08/2024"
  },
  {
    "First name": "Isabella",
    "Last name": "Wright",
    "Birth date": "08/15/1993",
    "Street": "777 Walnut Ln",
    "City": "San Antonio",
    "State": "TX",
    "ZIP": "78201",
    "Department": "Marketing",
    "Start date": "07/17/2024"
  },
  {
    "First name": "Elijah",
    "Last name": "King",
    "Birth date": "10/30/1997",
    "Street": "888 Hickory Dr",
    "City": "San Diego",
    "State": "CA",
    "ZIP": "92101",
    "Department": "Engineering",
    "Start date": "08/24/2024"
  },
  {
    "First name": "Mia",
    "Last name": "Scott",
    "Birth date": "12/07/1989",
    "Street": "999 Cherry St",
    "City": "Dallas",
    "State": "TX",
    "ZIP": "75201",
    "Department": "Human Resources",
    "Start date": "09/30/2024"
  },
  {
    "First name": "Emily",
    "Last name": "Lopez",
    "Birth date": "02/23/1990",
    "Street": "2121 Elm St",
    "City": "San Francisco",
    "State": "CA",
    "ZIP": "94101",
    "Department": "Marketing",
    "Start date": "06/20/2026"
  },
  {
    "First name": "Matthew",
    "Last name": "Gonzalez",
    "Birth date": "09/05/1985",
    "Street": "2222 Pine St",
    "City": "Boston",
    "State": "MA",
    "ZIP": "02108",
    "Department": "Engineering",
    "Start date": "07/25/2026"
  },
  {
    "First name": "Aiden",
    "Last name": "Harris",
    "Birth date": "04/14/1992",
    "Street": "2323 Oak St",
    "City": "Chicago",
    "State": "IL",
    "ZIP": "60601",
    "Department": "Human Resources",
    "Start date": "08/10/2026"
  },
  {
    "First name": "Abigail",
    "Last name": "Nelson",
    "Birth date": "11/02/1997",
    "Street": "2424 Maple St",
    "City": "Seattle",
    "State": "WA",
    "ZIP": "98101",
    "Department": "Legal",
    "Start date": "09/15/2026"
  },
  {
    "First name": "David",
    "Last name": "Clark",
    "Birth date": "01/21/1988",
    "Street": "2525 Birch St",
    "City": "Denver",
    "State": "CO",
    "ZIP": "80201",
    "Department": "Sales",
    "Start date": "10/20/2026"
  },
  {
    "First name": "Chloe",
    "Last name": "Lewis",
    "Birth date": "07/15/1995",
    "Street": "2626 Cedar St",
    "City": "Atlanta",
    "State": "GA",
    "ZIP": "30301",
    "Department": "Marketing",
    "Start date": "11/25/2026"
  },
  {
    "First name": "Mason",
    "Last name": "Walker",
    "Birth date": "03/30/1986",
    "Street": "2727 Cherry St",
    "City": "Miami",
    "State": "FL",
    "ZIP": "33101",
    "Department": "Engineering",
    "Start date": "12/10/2026"
  },
  {
    "First name": "Ella",
    "Last name": "Hall",
    "Birth date": "12/11/1991",
    "Street": "2828 Hickory St",
    "City": "Dallas",
    "State": "TX",
    "ZIP": "75201",
    "Department": "Human Resources",
    "Start date": "01/15/2027"
  },
  {
    "First name": "Samuel",
    "Last name": "Allen",
    "Birth date": "05/18/1993",
    "Street": "2929 Walnut St",
    "City": "Philadelphia",
    "State": "PA",
    "ZIP": "19101",
    "Department": "Legal",
    "Start date": "02/20/2027"
  },
  {
    "First name": "Grace",
    "Last name": "Young",
    "Birth date": "09/30/1996",
    "Street": "3030 Pine St",
    "City": "Phoenix",
    "State": "AZ",
    "ZIP": "85001",
    "Department": "Sales",
    "Start date": "03/25/2027"
  },
  {
    "First name": "Jackson",
    "Last name": "King",
    "Birth date": "08/25/1989",
    "Street": "3131 Oak St",
    "City": "San Francisco",
    "State": "CA",
    "ZIP": "94101",
    "Department": "Marketing",
    "Start date": "04/10/2027"
  },
  {
    "First name": "Lily",
    "Last name": "Hill",
    "Birth date": "04/22/1998",
    "Street": "3232 Maple Ave",
    "City": "New York",
    "State": "NY",
    "ZIP": "10001",
    "Department": "Engineering",
    "Start date": "05/15/2027"
  },
  {
    "First name": "Gabriel",
    "Last name": "Wright",
    "Birth date": "12/08/1991",
    "Street": "3333 Birch Ln",
    "City": "Los Angeles",
    "State": "CA",
    "ZIP": "90001",
    "Department": "Human Resources",
    "Start date": "06/20/2027"
  },
  {
    "First name": "Avery",
    "Last name": "Green",
    "Birth date": "03/18/1997",
    "Street": "3434 Pine Dr",
    "City": "Chicago",
    "State": "IL",
    "ZIP": "60601",
    "Department": "Legal",
    "Start date": "07/25/2027"
  },
  {
    "First name": "Isabella",
    "Last name": "Gonzalez",
    "Birth date": "11/26/1986",
    "Street": "3535 Elm St",
    "City": "Houston",
    "State": "TX",
    "ZIP": "77001",
    "Department": "Sales",
    "Start date": "08/30/2027"
  },
  {
    "First name": "Logan",
    "Last name": "Moore",
    "Birth date": "06/19/1994",
    "Street": "3636 Cedar Rd",
    "City": "Philadelphia",
    "State": "PA",
    "ZIP": "19101",
    "Department": "Marketing",
    "Start date": "09/15/2027"
  },
  {
    "First name": "Elizabeth",
    "Last name": "Anderson",
    "Birth date": "02/12/1987",
    "Street": "3737 Walnut Ln",
    "City": "Phoenix",
    "State": "AZ",
    "ZIP": "85001",
    "Department": "Engineering",
    "Start date": "10/20/2027"
  },
  {
    "First name": "Sebastian",
    "Last name": "Taylor",
    "Birth date": "09/21/1995",
    "Street": "3838 Hickory Dr",
    "City": "San Diego",
    "State": "CA",
    "ZIP": "92101",
    "Department": "Human Resources",
    "Start date": "11/25/2027"
  },
  {
    "First name": "Sofia",
    "Last name": "Martinez",
    "Birth date": "05/29/1992",
    "Street": "3939 Cherry St",
    "City": "Dallas",
    "State": "TX",
    "ZIP": "75201",
    "Department": "Legal",
    "Start date": "12/10/2027"
  },
  {
    "First name": "Caleb",
    "Last name": "Hernandez",
    "Birth date": "01/03/1990",
    "Street": "4040 Pine St",
    "City": "San Antonio",
    "State": "TX",
    "ZIP": "78201",
    "Department": "Sales",
    "Start date": "01/15/2028"
  },
  {
    "First name": "Oliver",
    "Last name": "Ramirez",
    "Birth date": "07/12/1985",
    "Street": "4141 Elm St",
    "City": "New York",
    "State": "NY",
    "ZIP": "10002",
    "Department": "Marketing",
    "Start date": "02/05/2028"
  },
  {
    "First name": "Ava",
    "Last name": "White",
    "Birth date": "03/28/1993",
    "Street": "4242 Pine St",
    "City": "Los Angeles",
    "State": "CA",
    "ZIP": "90002",
    "Department": "Engineering",
    "Start date": "03/20/2028"
  },
  {
    "First name": "Noah",
    "Last name": "Thomas",
    "Birth date": "11/06/1987",
    "Street": "4343 Oak St",
    "City": "Chicago",
    "State": "IL",
    "ZIP": "60602",
    "Department": "Human Resources",
    "Start date": "04/15/2028"
  },
  {
    "First name": "Mia",
    "Last name": "Martin",
    "Birth date": "05/14/1996",
    "Street": "4444 Maple Ave",
    "City": "Houston",
    "State": "TX",
    "ZIP": "77002",
    "Department": "Legal",
    "Start date": "05/25/2028"
  },
  {
    "First name": "Elijah",
    "Last name": "Clark",
    "Birth date": "09/24/1991",
    "Street": "4545 Birch Ln",
    "City": "Philadelphia",
    "State": "PA",
    "ZIP": "19102",
    "Department": "Sales",
    "Start date": "06/10/2028"
  },
  {
    "First name": "Sophia",
    "Last name": "Lee",
    "Birth date": "02/01/1988",
    "Street": "4646 Cedar Rd",
    "City": "Phoenix",
    "State": "AZ",
    "ZIP": "85002",
    "Department": "Marketing",
    "Start date": "07/05/2028"
  },
  {
    "First name": "William",
    "Last name": "Garcia",
    "Birth date": "10/17/1995",
    "Street": "4747 Walnut Ln",
    "City": "San Antonio",
    "State": "TX",
    "ZIP": "78202",
    "Department": "Engineering",
    "Start date": "08/20/2028"
  },
  {
    "First name": "Charlotte",
    "Last name": "Davis",
    "Birth date": "04/25/1992",
    "Street": "4848 Hickory Dr",
    "City": "San Diego",
    "State": "CA",
    "ZIP": "92102",
    "Department": "Human Resources",
    "Start date": "09/15/2028"
  },
  {
    "First name": "Jack",
    "Last name": "Miller",
    "Birth date": "12/03/1986",
    "Street": "4949 Cherry St",
    "City": "Dallas",
    "State": "TX",
    "ZIP": "75202",
    "Department": "Legal",
    "Start date": "10/20/2028"
  },
  {
    "First name": "Amelia",
    "Last name": "Wright",
    "Birth date": "06/20/1997",
    "Street": "5050 Pine St",
    "City": "San Francisco",
    "State": "CA",
    "ZIP": "94102",
    "Department": "Sales",
    "Start date": "11/05/2028"
  },
  {
    "First name": "Liam",
    "Last name": "Hernandez",
    "Birth date": "01/15/1993",
    "Street": "5151 Oak St",
    "City": "Boston",
    "State": "MA",
    "ZIP": "02109",
    "Department": "Marketing",
    "Start date": "12/20/2028"
  },
  {
    "First name": "Olivia",
    "Last name": "Taylor",
    "Birth date": "08/09/1989",
    "Street": "5252 Maple Ave",
    "City": "Seattle",
    "State": "WA",
    "ZIP": "98102",
    "Department": "Engineering",
    "Start date": "01/10/2029"
  },
  {
    "First name": "Benjamin",
    "Last name": "Rodriguez",
    "Birth date": "03/27/1994",
    "Street": "5353 Birch Ln",
    "City": "Denver",
    "State": "CO",
    "ZIP": "80202",
    "Department": "Human Resources",
    "Start date": "02/25/2029"
  },
  {
    "First name": "Evelyn",
    "Last name": "Harris",
    "Birth date": "10/11/1990",
    "Street": "5454 Cedar Rd",
    "City": "Atlanta",
    "State": "GA",
    "ZIP": "30302",
    "Department": "Legal",
    "Start date": "03/15/2029"
  },
  {
    "First name": "Mason",
    "Last name": "Wilson",
    "Birth date": "05/02/1995",
    "Street": "5555 Walnut Ln",
    "City": "Miami",
    "State": "FL",
    "ZIP": "33102",
    "Department": "Sales",
    "Start date": "04/05/2029"
  },
  {
    "First name": "Harper",
    "Last name": "King",
    "Birth date": "12/23/1996",
    "Street": "5656 Hickory Dr",
    "City": "Dallas",
    "State": "TX",
    "ZIP": "75203",
    "Department": "Marketing",
    "Start date": "05/10/2029"
  },
  {
    "First name": "Avery",
    "Last name": "Lewis",
    "Birth date": "07/18/1988",
    "Street": "5757 Cherry St",
    "City": "Philadelphia",
    "State": "PA",
    "ZIP": "19103",
    "Department": "Engineering",
    "Start date": "06/20/2029"
  },
  {
    "First name": "Samuel",
    "Last name": "Walker",
    "Birth date": "01/31/1997",
    "Street": "5858 Pine St",
    "City": "Phoenix",
    "State": "AZ",
    "ZIP": "85003",
    "Department": "Human Resources",
    "Start date": "07/15/2029"
  },
  {
    "First name": "Isabella",
    "Last name": "Hall",
    "Birth date": "09/13/1992",
    "Street": "5959 Oak St",
    "City": "San Antonio",
    "State": "TX",
    "ZIP": "78203",
    "Department": "Legal",
    "Start date": "08/25/2029"
  },
  {
    "First name": "Ethan",
    "Last name": "Allen",
    "Birth date": "04/07/1998",
    "Street": "6060 Maple Ave",
    "City": "San Diego",
    "State": "CA",
    "ZIP": "92103",
    "Department": "Sales",
    "Start date": "09/10/2029"
  },
  {
    "First name": "Emma",
    "Last name": "Young",
    "Birth date": "11/25/1985",
    "Street": "6161 Birch Ln",
    "City": "New York",
    "State": "NY",
    "ZIP": "10003",
    "Department": "Marketing",
    "Start date": "10/20/2029"
  },
  {
    "First name": "Daniel",
    "Last name": "Hernandez",
    "Birth date": "06/16/1999",
    "Street": "6262 Cedar Rd",
    "City": "Los Angeles",
    "State": "CA",
    "ZIP": "90003",
    "Department": "Engineering",
    "Start date": "11/05/2029"
  },
  {
    "First name": "Madison",
    "Last name": "Garcia",
    "Birth date": "02/08/1994",
    "Street": "6363 Walnut Ln",
    "City": "Chicago",
    "State": "IL",
    "ZIP": "60603",
    "Department": "Human Resources",
    "Start date": "12/15/2029"
  },
  {
    "First name": "Michael",
    "Last name": "Ramirez",
    "Birth date": "08/22/1987",
    "Street": "6464 Hickory Dr",
    "City": "Houston",
    "State": "TX",
    "ZIP": "77003",
    "Department": "Legal",
    "Start date": "01/20/2030"
  },
  {
    "First name": "Lily",
    "Last name": "Clark",
    "Birth date": "03/10/1995",
    "Street": "6565 Cherry St",
    "City": "Philadelphia",
    "State": "PA",
    "ZIP": "19104",
    "Department": "Sales",
    "Start date": "02/10/2030"
  },
  {
    "First name": "James",
    "Last name": "Lee",
    "Birth date": "10/28/1991",
    "Street": "6666 Pine St",
    "City": "Phoenix",
    "State": "AZ",
    "ZIP": "85004",
    "Department": "Marketing",
    "Start date": "03/05/2030"
  },
  {
    "First name": "Charlotte",
    "Last name": "Martin",
    "Birth date": "05/17/1996",
    "Street": "6767 Oak St",
    "City": "San Antonio",
    "State": "TX",
    "ZIP": "78204",
    "Department": "Engineering",
    "Start date": "04/15/2030"
  },
  {
    "First name": "Alexander",
    "Last name": "Davis",
    "Birth date": "12/05/1988",
    "Street": "8 Maple Ave",
    "City": "San Diego",
    "State": "CA",
    "ZIP": "92104",
    "Department": "Human Resources",
    "Start date": "05/05/2030"
  },
  {
    "First name": "Victoria",
    "Last name": "Thomas",
    "Birth date": "06/21/1993",
    "Street": "6969 Birch Ln",
    "City": "Dallas",
    "State": "TX",
    "ZIP": "75204",
    "Department": "Legal",
    "Start date": "06/15/2030"
  },
  {
    "First name": "Anthony",
    "Last name": "White",
    "Birth date": "01/19/1997",
    "Street": "7070 Cedar Rd",
    "City": "San Francisco",
    "State": "CA",
    "ZIP": "94103",
    "Department": "Sales",
    "Start date": "07/05/2030"
  },
  {
    "First name": "Aubrey",
    "Last name": "Harris",
    "Birth date": "07/13/1992",
    "Street": "7171 Walnut Ln",
    "City": "Boston",
    "State": "MA",
    "ZIP": "02110",
    "Department": "Marketing",
    "Start date": "08/20/2030"
  },
  {
    "First name": "Joshua",
    "Last name": "Clark",
    "Birth date": "02/26/1998",
    "Street": "7272 Hickory Dr",
    "City": "Seattle",
    "State": "WA",
    "ZIP": "98103",
    "Department": "Engineering",
    "Start date": "09/10/2030"
  },
  {
    "First name": "Sofia",
    "Last name": "Lee",
    "Birth date": "09/14/1989",
    "Street": "7373 Cherry St",
    "City": "Denver",
    "State": "CO",
    "ZIP": "80203",
    "Department": "Human Resources",
    "Start date": "10/25/2030"
  },
  {
    "First name": "Caleb",
    "Last name": "Garcia",
    "Birth date": "05/03/1994",
    "Street": "7474 Pine St",
    "City": "Atlanta",
    "State": "GA",
    "ZIP": "30303",
    "Department": "Legal",
    "Start date": "11/10/2030"
  },
  {
    "First name": "Nathan",
    "Last name": "Rodriguez",
    "Birth date": "08/16/1985",
    "Street": "7575 Oak St",
    "City": "Miami",
    "State": "FL",
    "ZIP": "33103",
    "Department": "Sales",
    "Start date": "12/05/2030"
  },
  {
    "First name": "Aria",
    "Last name": "Hernandez",
    "Birth date": "02/04/1996",
    "Street": "7676 Maple Ave",
    "City": "Dallas",
    "State": "TX",
    "ZIP": "75205",
    "Department": "Marketing",
    "Start date": "01/20/2031"
  },
  {
    "First name": "Andrew",
    "Last name": "Martin",
    "Birth date": "11/12/1990",
    "Street": "7777 Birch Ln",
    "City": "San Diego",
    "State": "CA",
    "ZIP": "92105",
    "Department": "Engineering",
    "Start date": "02/10/2031"
  },
  {
    "First name": "Brooklyn",
    "Last name": "Davis",
    "Birth date": "05/29/1997",
    "Street": "7878 Cedar Rd",
    "City": "San Francisco",
    "State": "CA",
    "ZIP": "94104",
    "Department": "Human Resources",
    "Start date": "03/05/2031"
  },
  {
    "First name": "Jackson",
    "Last name": "Wright",
    "Birth date": "12/18/1988",
    "Street": "7979 Walnut Ln",
    "City": "Boston",
    "State": "MA",
    "ZIP": "02111",
    "Department": "Legal",
    "Start date": "04/15/2031"
  },
  {
    "First name": "Layla",
    "Last name": "Thomas",
    "Birth date": "04/06/1992",
    "Street": "8080 Hickory Dr",
    "City": "Seattle",
    "State": "WA",
    "ZIP": "98104",
    "Department": "Sales",
    "Start date": "05/05/2031"
  },
  {
    "First name": "Gabriel",
    "Last name": "White",
    "Birth date": "10/24/1995",
    "Street": "8181 Cherry St",
    "City": "Denver",
    "State": "CO",
    "ZIP": "80204",
    "Department": "Marketing",
    "Start date": "06/15/2031"
  },
  {
    "First name": "Aurora",
    "Last name": "Harris",
    "Birth date": "03/13/1999",
    "Street": "8282 Pine St",
    "City": "Atlanta",
    "State": "GA",
    "ZIP": "30304",
    "Department": "Engineering",
    "Start date": "07/10/2031"
  },
  {
    "First name": "Carter",
    "Last name": "Clark",
    "Birth date": "09/01/1986",
    "Street": "8383 Oak St",
    "City": "Philadelphia",
    "State": "PA",
    "ZIP": "19105",
    "Department": "Human Resources",
    "Start date": "08/20/2031"
  },
  {
    "First name": "Zoe",
    "Last name": "Lee",
    "Birth date": "01/17/1993",
    "Street": "8484 Maple Ave",
    "City": "Phoenix",
    "State": "AZ",
    "ZIP": "85005",
    "Department": "Legal",
    "Start date": "09/15/2031"
  },
  {
    "First name": "Leo",
    "Last name": "Garcia",
    "Birth date": "07/05/1997",
    "Street": "8585 Birch Ln",
    "City": "Houston",
    "State": "TX",
    "ZIP": "77005",
    "Department": "Sales",
    "Start date": "10/05/2031"
  },
  {
    "First name": "Isabella",
    "Last name": "Ramirez",
    "Birth date": "02/23/1994",
    "Street": "8686 Cedar Rd",
    "City": "New York",
    "State": "NY",
    "ZIP": "10005",
    "Department": "Marketing",
    "Start date": "11/01/2031"
  },
  {
    "First name": "Elijah",
    "Last name": "Hall",
    "Birth date": "10/11/1987",
    "Street": "8787 Walnut Ln",
    "City": "Los Angeles",
    "State": "CA",
    "ZIP": "90005",
    "Department": "Engineering",
    "Start date": "12/01/2031"
  },
  {
    "First name": "Ava",
    "Last name": "King",
    "Birth date": "05/27/1996",
    "Street": "8888 Hickory Dr",
    "City": "Chicago",
    "State": "IL",
    "ZIP": "60605",
    "Department": "Human Resources",
    "Start date": "01/15/2032"
  },
  {
    "First name": "Mia",
    "Last name": "Allen",
    "Birth date": "01/09/1991",
    "Street": "8989 Cherry St",
    "City": "Houston",
    "State": "TX",
    "ZIP": "77006",
    "Department": "Legal",
    "Start date": "02/10/2032"
  },
  {
    "First name": "Caleb",
    "Last name": "Young",
    "Birth date": "12/17/1992",
    "Street": "9090 Pine St",
    "City": "Philadelphia",
    "State": "PA",
    "ZIP": "19106",
    "Department": "Sales",
    "Start date": "03/05/2032"
  },
  {
    "First name": "Sophia",
    "Last name": "Hernandez",
    "Birth date": "08/03/1997",
    "Street": "9191 Oak St",
    "City": "Phoenix",
    "State": "AZ",
    "ZIP": "85006",
    "Department": "Marketing",
    "Start date": "04/01/2032"
  },
  {
    "First name": "Liam",
    "Last name": "Garcia",
    "Birth date": "04/21/1988",
    "Street": "9292 Maple Ave",
    "City": "San Antonio",
    "State": "TX",
    "ZIP": "78206",
    "Department": "Engineering",
    "Start date": "05/10/2032"
  },
  {
    "First name": "Emma",
    "Last name": "Davis",
    "Birth date": "03/15/1993",
    "Street": "9393 Birch Ln",
    "City": "San Diego",
    "State": "CA",
    "ZIP": "92106",
    "Department": "Human Resources",
    "Start date": "06/05/2032"
  },
  {
    "First name": "Oliver",
    "Last name": "Thomas",
    "Birth date": "11/07/1995",
    "Street": "9494 Cedar Rd",
    "City": "Dallas",
    "State": "TX",
    "ZIP": "75206",
    "Department": "Legal",
    "Start date": "07/15/2032"
  },
  {
    "First name": "Charlotte",
    "Last name": "White",
    "Birth date": "07/25/1986",
    "Street": "9595 Walnut Ln",
    "City": "San Francisco",
    "State": "CA",
    "ZIP": "94106",
    "Department": "Sales",
    "Start date": "08/05/2032"
  },
  {
    "First name": "Noah",
    "Last name": "Harris",
    "Birth date": "05/13/1998",
    "Street": "9696 Hickory Dr",
    "City": "Boston",
    "State": "MA",
    "ZIP": "02112",
    "Department": "Marketing",
    "Start date": "09/01/2032"
  },
  {
    "First name": "Amelia",
    "Last name": "Martin",
    "Birth date": "01/31/1990",
    "Street": "9797 Cherry St",
    "City": "Seattle",
    "State": "WA",
    "ZIP": "98106",
    "Department": "Engineering",
    "Start date": "10/10/2032"
  },
  {
    "First name": "William",
    "Last name": "Clark",
    "Birth date": "10/19/1999",
    "Street": "9898 Pine St",
    "City": "Denver",
    "State": "CO",
    "ZIP": "80206",
    "Department": "Human Resources",
    "Start date": "11/15/2032"
  },
  {
    "First name": "Abigail",
    "Last name": "Lee",
    "Birth date": "06/06/1987",
    "Street": "9999 Oak St",
    "City": "Atlanta",
    "State": "GA",
    "ZIP": "30306",
    "Department": "Legal",
    "Start date": "12/05/2032"
  },
  {
    "First name": "Mason",
    "Last name": "Rodriguez",
    "Birth date": "03/22/1995",
    "Street": "10000 Maple Ave",
    "City": "Miami",
    "State": "FL",
    "ZIP": "33106",
    "Department": "Sales",
    "Start date": "01/10/2033"
  },
  {
    "First name": "Harper",
    "Last name": "Hernandez",
    "Birth date": "12/10/1996",
    "Street": "10101 Birch Ln",
    "City": "Dallas",
    "State": "TX",
    "ZIP": "75207",
    "Department": "Marketing",
    "Start date": "02/05/2033"
  },
  {
    "First name": "Evelyn",
    "Last name": "Garcia",
    "Birth date": "09/18/1988",
    "Street": "10202 Cedar Rd",
    "City": "San Diego",
    "State": "CA",
    "ZIP": "92107",
    "Department": "Engineering",
    "Start date": "03/05/2033"
  },
  {
    "First name": "Samuel",
    "Last name": "Davis",
    "Birth date": "04/26/1997",
    "Street": "10303 Walnut Ln",
    "City": "San Francisco",
    "State": "CA",
    "ZIP": "94107",
    "Department": "Human Resources",
    "Start date": "04/15/2033"
  },
  {
    "First name": "Isabella",
    "Last name": "Walker",
    "Birth date": "01/14/1992",
    "Street": "10404 Hickory Dr",
    "City": "Boston",
    "State": "MA",
    "ZIP": "02113",
    "Department": "Legal",
    "Start date": "05/05/2033"
  },
  {
    "First name": "Elijah",
    "Last name": "Thomas",
    "Birth date": "11/22/1993",
    "Street": "10505 Cherry St",
    "City": "Seattle",
    "State": "WA",
    "ZIP": "98107",
    "Department": "Sales",
    "Start date": "06/10/2033"
  },
  {
    "First name": "Sophia",
    "Last name": "White",
    "Birth date": "06/10/1998",
    "Street": "10606 Pine St",
    "City": "Denver",
    "State": "CO",
    "ZIP": "80207",
    "Department": "Marketing",
    "Start date": "07/05/2033"
  },
  {
    "First name": "Liam",
    "Last name": "Harris",
    "Birth date": "08/16/1986",
    "Street": "10707 Oak St",
    "City": "Atlanta",
    "State": "GA",
    "ZIP": "30307",
    "Department": "Engineering",
    "Start date": "08/10/2033"
  },
  {
    "First name": "Olivia",
    "Last name": "Martin",
    "Birth date": "08/16/1986",
    "Street": "10808 Maple Ave",
    "City": "Philadelphia",
    "State": "PA",
    "ZIP": "19107",
    "Department": "Human Resources",
    "Start date": "09/15/2033"
  },
  {
    "First name": "Mason",
    "Last name": "Clark",
    "Birth date": "05/04/1999",
    "Street": "10909 Birch Ln",
    "City": "Phoenix",
    "State": "AZ",
    "ZIP": "85007",
    "Department": "Legal",
    "Start date": "10/05/2033"
  },
  {
    "First name": "Ava",
    "Last name": "Lee",
    "Birth date": "12/20/1990",
    "Street": "11010 Cedar Rd",
    "City": "Houston",
    "State": "TX",
    "ZIP": "77007",
    "Department": "Sales",
    "Start date": "11/10/2033"
  },
  {
    "First name": "Noah",
    "Last name": "Garcia",
    "Birth date": "07/18/1996",
    "Street": "11111 Walnut Ln",
    "City": "San Antonio",
    "State": "TX",
    "ZIP": "78207",
    "Department": "Marketing",
    "Start date": "12/05/2033"
  },
  {
    "First name": "Emma",
    "Last name": "Davis",
    "Birth date": "03/06/1991",
    "Street": "11212 Hickory Dr",
    "City": "San Diego",
    "State": "CA",
    "ZIP": "92108",
    "Department": "Engineering",
    "Start date": "01/10/2034"
  }
]
